STARLINK-34068          
1 63914U 25095AA  26068.32351005  .00032041  00000+0  11688-2 0  9990
2 63914  42.9971 178.1184 0000918 249.4112 110.6641 15.27579423 47722
PELICAN-6               
1 66703U 25276AP  26068.70709364  .00077979  00000+0  29726-2 0  9998
2 66703  97.4276 144.2072 0003569 157.8575 202.2819 15.26377980 15334
