[{"OBJECT_NAME":"STARLINK-34068","OBJECT_ID":"2025-095AA","EPOCH":"2026-03-09T07:45:51.268320","MEAN_MOTION":15.27579423,"ECCENTRICITY":9.188e-5,"INCLINATION":42.9971,"RA_OF_ASC_NODE":178.1184,"ARG_OF_PERICENTER":249.4112,"MEAN_ANOMALY":110.6641,"EPHEMERIS_TYPE":0,"CLASSIFICATION_TYPE":"U","NORAD_CAT_ID":63914,"ELEMENT_SET_NO":999,"REV_AT_EPOCH":4772,"BSTAR":0.0011688208,"MEAN_MOTION_DOT":0.00032041,"MEAN_MOTION_DDOT":0},{"OBJECT_NAME":"PELICAN-6","OBJECT_ID":"2025-276AP","EPOCH":"2026-03-09T16:58:12.890496","MEAN_MOTION":15.2637798,"ECCENTRICITY":0.0003569,"INCLINATION":97.4276,"RA_OF_ASC_NODE":144.2072,"ARG_OF_PERICENTER":157.8575,"MEAN_ANOMALY":202.2819,"EPHEMERIS_TYPE":0,"CLASSIFICATION_TYPE":"U","NORAD_CAT_ID":66703,"ELEMENT_SET_NO":999,"REV_AT_EPOCH":1533,"BSTAR":0.0029725783,"MEAN_MOTION_DOT":0.00077979,"MEAN_MOTION_DDOT":0}]
